{
  "norad_id": 63311,
  "name": "STARLINK-11589 [DTC]",
  "history": [
    {
      "epoch": "2026-03-28T13:52:59.128032Z",
      "apogee_km": 357.3538975450356,
      "perigee_km": 355.35106037399237,
      "latitude_deg": -1.1461507479116266e-05,
      "longitude_deg": 116.85202688483018,
      "height_km": 355.938432453804,
      "semi_major_axis_km": 6734.489478959514,
      "eccentricity": 0.0001487,
      "inclination_deg": 43.0006,
      "raan_deg": 151.0953,
      "arg_perigee_deg": 280.7411,
      "mean_anomaly_deg": 79.3289,
      "mean_motion_rev_day": 15.70889887
    }
  ]
}