{"fetched_at":"2026-03-29T02:12:04Z","count":15717,"tles":[{"name":"STARLINK-11589 [DTC]","line1":"1 63311U 25057E   26087.57846213  .00140309  00000+0  10763-2 0  9997","line2":"2 63311  43.0006 151.0953 0001486 280.7411  79.3289 15.70889887 60145","category":"Starlink"}]}